COSMOS 2433 (720)       
1 32275U 07052A   23306.62835028 -.00000075  00000+0  00000+0 0  9992
2 32275  66.0058 347.9635 0005347 243.7149 116.2913  2.13104156124656
COSMOS 2432 (719)       
1 32276U 07052B   23307.25390992 -.00000073  00000+0  00000+0 0  9997
2 32276  66.0201 348.0524 0010347 311.4036 115.3868  2.13103333124699
COSMOS 2434 (721)       
1 32393U 07065A   23307.27255125 -.00000007  00000+0  00000+0 0  9998
2 32393  64.3303 224.2714 0002523  69.5522 316.0414  2.13103117123389
COSMOS 2436 (723)       
1 32395U 07065C   23307.28285507 -.00000007  00000+0  00000+0 0  9998
2 32395  64.3390 224.3333 0016521   0.6471 168.2927  2.13102747123336
COSMOS 2456 (730)       
1 36111U 09070A   23307.50622859  .00000048  00000+0  00000+0 0  9990
2 36111  64.5167 103.7398 0001239 324.5095  38.6445  2.13099142108041
COSMOS 2457 (733)       
1 36112U 09070B   23306.86229972  .00000041  00000+0  00000+0 0  9991
2 36112  64.5009 103.6257 0006565 149.8252 210.5904  2.13101316108071
COSMOS 2460 (732)       
1 36402U 10007C   23307.47220984 -.00000071  00000+0  00000+0 0  9991
2 36402  65.8669 346.6406 0002432 248.5526 208.8630  2.13106347106347
COSMOS 2476 (744)       
1 37867U 11064A   23307.31057667  .00000048  00000+0  00000+0 0  9993
2 37867  64.7955 105.2964 0021670 230.1189 252.7672  2.13101755 93374
COSMOS 2477 (745)       
1 37868U 11064B   23307.50152545  .00000050  00000+0  00000+0 0  9999
2 37868  64.8027 105.3600 0018866 230.1515 217.0791  2.13101608 93384
COSMOS 2475 (743)       
1 37869U 11064C   23307.43930815  .00000049  00000+0  00000+0 0  9994
2 37869  64.8100 105.3750 0022806 248.4283 109.6143  2.13101874 93377
COSMOS 2485 (747)       
1 39155U 13019A   23307.09228621  .00000046  00000+0  00000+0 0  9990
2 39155  64.9553 105.8402 0022203 226.1724 133.6464  2.13101864 81888
COSMOS 2492 (754)       
1 39620U 14012A   23307.04784725 -.00000072  00000+0  00000+0 0  9998
2 39620  65.7502 346.2646 0013518 310.6852  49.2573  2.13103218 74845
COSMOS 2500 (755)       
1 40001U 14032A   23307.23034336 -.00000071  00000+0  00000+0 0  9991
2 40001  65.6883 346.0813 0008585 214.9055 145.0977  2.13105978 73065
COSMOS 2501 (702K)      
1 40315U 14075A   23306.54246873 -.00000001  00000+0  00000+0 0  9993
2 40315  63.6333 223.5981 0018878 208.2298 151.7040  2.13101254 69442
COSMOS 2514 (751)       
1 41330U 16008A   23307.46245977 -.00000071  00000+0  00000+0 0  9992
2 41330  65.4849 345.6397 0012554 218.2862 141.6836  2.13102657 60239
COSMOS 2522 (752)       
1 42939U 17055A   23307.30398565 -.00000008  00000+0  00000+0 0  9996
2 42939  64.0940 224.5320 0007553 241.1407 118.8183  2.13102048 47584
COSMOS 2527 (756)       
1 43508U 18053A   23306.79337034  .00000044  00000+0  00000+0 0  9993
2 43508  65.1161 105.9551 0007863 213.4582 146.4938  2.13102466 41877
COSMOS 2529 (757)       
1 43687U 18086A   23307.36200582 -.00000008  00000+0  00000+0 0  9999
2 43687  64.3092 224.9817 0009229 265.0053  94.9235  2.13102076 38892
COSMOS 2534 (758)       
1 44299U 19030A   23307.24135035 -.00000007  00000+0  00000+0 0  9995
2 44299  64.3823 224.9177 0011693 286.6259 114.9790  2.13101965 34530
COSMOS 2544 (759)       
1 44850U 19088A   23306.26790174  .00000038  00000+0  00000+0 0  9996
2 44850  65.1021 105.8144 0011444 247.3909 112.4884  2.13102220 30283
COSMOS 2545 (760)       
1 45358U 20018A   23307.40333789 -.00000072  00000+0  00000+0 0  9996
2 45358  64.8252 345.8378 0011796 246.0939 113.8411  2.13102649 28275
COSMOS 2547 (705K)      
1 46805U 20075A   23307.12280885 -.00000005  00000+0  00000+0 0  9990
2 46805  64.6097 224.4957 0006985 242.2641 117.6999  2.13102827 23518
COSMOS 2557 (706K)      
1 52984U 22075A   23307.28570717 -.00000075  00000+0  00000+0 0  9997
2 52984  64.7439 347.9949 0013601 276.4787  83.4261  2.13102239 10323
COSMOS 2559 (707K)      
1 54031U 22130A   23307.22789005 -.00000076  00000+0  00000+0 0  9991
2 54031  64.7152 348.1224 0007982 228.3643 131.6269  2.13101525  8295
COSMOS 2564 (761)       
1 54377U 22161A   23306.95143969 -.00000004  00000+0  00000+0 0  9991
2 54377  64.7506 224.5652 0008914 220.3752 139.5934  2.13102212  7235
COSMOS 2569 (703K)      
1 57517U 23114A   23307.43986118  .00000049  00000+0  00000+0 0  9992
2 57517  64.8260 105.0071 0008663 294.2509  65.6609  2.13104181  1870
